[{"OBJECT_NAME":"STARLINK-3863","OBJECT_ID":"2022-049Q","EPOCH":"2026-03-09T22:20:28.721472","MEAN_MOTION":15.08837328,"ECCENTRICITY":0.00013682,"INCLINATION":53.2178,"RA_OF_ASC_NODE":48.0387,"ARG_OF_PERICENTER":86.6812,"MEAN_ANOMALY":273.4337,"EPHEMERIS_TYPE":0,"CLASSIFICATION_TYPE":"U","NORAD_CAT_ID":52465,"ELEMENT_SET_NO":999,"REV_AT_EPOCH":21242,"BSTAR":5.707138e-5,"MEAN_MOTION_DOT":6.2e-6,"MEAN_MOTION_DDOT":0},{"OBJECT_NAME":"RAAF M1","OBJECT_ID":"2018-099X","EPOCH":"2026-03-09T15:51:10.230048","MEAN_MOTION":15.07065376,"ECCENTRICITY":0.00134971,"INCLINATION":97.4534,"RA_OF_ASC_NODE":114.8325,"ARG_OF_PERICENTER":21.6261,"MEAN_ANOMALY":338.5534,"EPHEMERIS_TYPE":0,"CLASSIFICATION_TYPE":"U","NORAD_CAT_ID":43779,"ELEMENT_SET_NO":999,"REV_AT_EPOCH":39714,"BSTAR":0.00026511092,"MEAN_MOTION_DOT":3.923e-5,"MEAN_MOTION_DDOT":0}]
